{"type": "FeatureCollection", "features": [{"type": "Feature", "geometry": {"type": "Point", "coordinates": [138.26700629111872, -34.48526304386641]}, "properties": {"sfabi": 0.0301, "ndci": 0.0241, "severity": "Low", "lat": -34.4853, "lon": 138.267, "date": "2026-07-08"}}, {"type": "Feature", "geometry": {"type": "Point", "coordinates": [135.5226117708861, -34.22262857651267]}, "properties": {"sfabi": 0.0982, "ndci": 0.0785, "severity": "Medium", "lat": -34.2226, "lon": 135.5226, "date": "2026-07-08"}}], "metadata": {"generated_at": "2026-07-08T08:34:15.623735", "source": "Real Sentinel-2 GEE", "total_cells": 2}}